[{"OBJECT_NAME":"STARLINK-1361","OBJECT_ID":"2020-025AN","EPOCH":"2026-03-09T22:44:55.848768","MEAN_MOTION":15.47742463,"ECCENTRICITY":0.00077177,"INCLINATION":53.0509,"RA_OF_ASC_NODE":72.6747,"ARG_OF_PERICENTER":32.9629,"MEAN_ANOMALY":327.1858,"EPHEMERIS_TYPE":0,"CLASSIFICATION_TYPE":"U","NORAD_CAT_ID":45567,"ELEMENT_SET_NO":999,"REV_AT_EPOCH":32559,"BSTAR":0.0019136745,"MEAN_MOTION_DOT":0.00101742,"MEAN_MOTION_DDOT":0},{"OBJECT_NAME":"JILIN-1 GAOFEN 03D52","OBJECT_ID":"2022-155E","EPOCH":"2026-03-09T23:35:25.140768","MEAN_MOTION":15.51754005,"ECCENTRICITY":0.00041872,"INCLINATION":97.6041,"RA_OF_ASC_NODE":205.6865,"ARG_OF_PERICENTER":23.2196,"MEAN_ANOMALY":336.9244,"EPHEMERIS_TYPE":0,"CLASSIFICATION_TYPE":"U","NORAD_CAT_ID":54255,"ELEMENT_SET_NO":999,"REV_AT_EPOCH":18428,"BSTAR":0.00078662811,"MEAN_MOTION_DOT":0.00047033,"MEAN_MOTION_DDOT":0}]
